[{"OBJECT_NAME":"IRIDIUM 135","OBJECT_ID":"2017-083A","EPOCH":"2026-03-09T20:54:11.059776","MEAN_MOTION":14.34219982,"ECCENTRICITY":0.00022174,"INCLINATION":86.4022,"RA_OF_ASC_NODE":3.5181,"ARG_OF_PERICENTER":86.9121,"MEAN_ANOMALY":273.2329,"EPHEMERIS_TYPE":0,"CLASSIFICATION_TYPE":"U","NORAD_CAT_ID":43070,"ELEMENT_SET_NO":999,"REV_AT_EPOCH":42991,"BSTAR":4.5894748e-5,"MEAN_MOTION_DOT":1.48e-6,"MEAN_MOTION_DDOT":0},{"OBJECT_NAME":"CZ-6A DEB","OBJECT_ID":"2022-151EZ","EPOCH":"2026-03-09T19:25:24.678624","MEAN_MOTION":14.60581247,"ECCENTRICITY":0.01239308,"INCLINATION":98.8454,"RA_OF_ASC_NODE":172.5995,"ARG_OF_PERICENTER":164.0466,"MEAN_ANOMALY":196.4692,"EPHEMERIS_TYPE":0,"CLASSIFICATION_TYPE":"U","NORAD_CAT_ID":54425,"ELEMENT_SET_NO":999,"REV_AT_EPOCH":17619,"BSTAR":0.00089921361,"MEAN_MOTION_DOT":4.814e-5,"MEAN_MOTION_DDOT":0}]
